[
    {
        "Altitude(m)": 607911.0169161755,
        "Argument of Periapsis(deg)": 0.0,
        "Eccentricity": 0.0,
        "Inclination(deg)": 60.0,
        "Latitude(deg)": -14.292988647391429,
        "Longitude(deg)": -141.5573706411542,
        "Mean Anomaly(deg)": 196.36359999999996,
        "RAAN(deg)": 130.0,
        "Satellite Name": "Test1 584",
        "Satellite Number": 584,
        "Semi-Major Axis(m)": 6980739.136638005,
        "Time(s)": 0
    },
    {
        "Altitude(m)": 608060.250844919,
        "Argument of Periapsis(deg)": 0.00010418945913296404,
        "Eccentricity": 0.0,
        "Inclination(deg)": 60.0,
        "Latitude(deg)": -14.826650409496951,
        "Longitude(deg)": -141.26876185104692,
        "Mean Anomaly(deg)": 196.98370614546178,
        "RAAN(deg)": 129.99957995086024,
        "Satellite Name": "Test1 584",
        "Satellite Number": 584,
        "Semi-Major Axis(m)": 6980739.136638005,
        "Time(s)": 10
    }
]